KUIPER-00053            
1 64513U 25134P   25207.17414114  .00029701  00000+0  82894-3 0  9995
2 64513  51.8778 173.0267 0001684 206.2523 153.8378 15.36485743  5817
KUIPER-00054            
1 64514U 25134Q   25207.17830494  .00027919  00000+0  78426-3 0  9994
2 64514  51.8767 173.0534 0002517 201.2686 158.8196 15.36316410  6216
KUIPER-00055            
1 64515U 25134R   25206.31944479  .00016378  00000+0  45648-3 0  9996
2 64515  51.8770 177.0503 0000732 100.6160 259.4909 15.36907712  5992
KUIPER-00056            
1 64516U 25134S   25207.18299524  .00029282  00000+0  82907-3 0  9994
2 64516  51.8742 173.0836 0002981 208.5067 151.5756 15.36042970  5818
KUIPER-00057            
1 64517U 25134T   25207.20059919  .00003562  00000+0  11409-3 0  9992
2 64517  51.8693 173.1858 0006614 221.0984 138.9504 15.35070566  5927
KUIPER-00058            
1 64518U 25134U   25207.19038386  .00021876  00000+0  62942-3 0  9992
2 64518  51.8710 173.1254 0004517 222.1897 137.8741 15.35702682  5813
KUIPER-00059            
1 64519U 25134V   25207.16653587  .00031586  00000+0  87011-3 0  9999
2 64519  51.8774 172.9750 0000981 135.4479 224.6586 15.36861536  5801
KUIPER-00060            
1 64520U 25134W   25207.17127974  .00029019  00000+0  80555-3 0  9992
2 64520  51.8769 173.0091 0001911 165.6115 194.4926 15.36666474  5810
